format  = 'OEF2.0'       ! file format
rectype = 'ML'           ! record type (1L/ML)
refsys  = ECLM J2000     ! default reference system
END_OF_HEADER
2022OB5
! Keplerian elements: a, e, i, long. node, arg. peric., mean anomaly
 KEP   1.0239929945720563E+00  5.9531919032530821E-02   2.5390717058948 308.0742401418013  92.8788888034344  2.7523462240052027E+02
 MJD     59792.691344584 TDT
 MAG  28.813  0.150
! Non-gravitational parameters: model used, number of model parameters, dimension
 LSP   0  0    6
! PERIHELION   9.6303272652931382E-01
! APHELION   1.0849532626147986E+00
! ANODE   8.2660002607717435E-03
! DNODE   3.1408129788216874E-02
! MOID   5.3754815039091259E-03
! PERIOD   3.7848084543206471E+02
! PHA F
! VINFTY     2.1380637486204
! U_PAR 4.1
! ORB_TYPE Apollo
! RMS    1.85858E-06   3.81309E-06   1.76305E-04   2.58447E-05   9.65789E-04   1.38588E-03
 COV   3.454326662596819E-12  7.031100915165097E-12  3.261562318536510E-10
 COV   4.701150783527715E-11 -1.787692188802635E-09  2.574988407783582E-09
 COV   1.453965387620361E-11  6.716248073440527E-10  9.732571242635507E-11
 COV  -3.597419282621802E-09  5.225343240323199E-09  3.108341144565231E-08
 COV   4.504403821738336E-09 -1.673681441974341E-07  2.425593621513732E-07
 COV   6.679462718535847E-10 -2.404980712839186E-08  3.493034951495819E-08
 COV   9.327484123086008E-07 -1.335567126468572E-06  1.920672076890530E-06
 COR   1.000000000000000E+00  9.921208915464224E-01  9.953587532900027E-01
 COR   9.787047889584983E-01 -9.959299226422499E-01  9.996937215627824E-01
 COR   9.999999999999999E-01  9.990457034713855E-01  9.875970689476337E-01
 COR  -9.768587364744548E-01  9.888061939013633E-01  1.000000000000000E+00
 COR   9.885581356428432E-01 -9.829381760425833E-01  9.927207326067412E-01
 COR   1.000000000000000E+00 -9.635152071247277E-01  9.752266368270636E-01
 COR   1.000000000000000E+00 -9.978306739781621E-01  1.000000000000000E+00
